{"type": "FeatureCollection", "features": [ {"type": "Feature", "properties": {"norad_id": 39122, "name": "EUTELSAT 117 WEST A", "group": "eutelsat", "lat": -0.029507191042903197, "lon": -36.77105359643634, "alt_km": 35778.94426426467, "timestamp": "2025-12-16T23:36:35.856550+00:00", "meta": {"OBJECT_NAME": "EUTELSAT 117 WEST A", "OBJECT_ID": "2013-012A", "EPOCH": "2025-12-16T08:44:16.702080", "MEAN_MOTION": 1.00272564, "ECCENTRICITY": 0.00027564, "INCLINATION": 0.0232, "RA_OF_ASC_NODE": 37.0984, "ARG_OF_PERICENTER": 232.4259, "MEAN_ANOMALY": 189.9985, "EPHEMERIS_TYPE": 0, "CLASSIFICATION_TYPE": "U", "NORAD_CAT_ID": 39122, "ELEMENT_SET_NO": 999, "REV_AT_EPOCH": 4660, "BSTAR": 0, "MEAN_MOTION_DOT": 1e-07, "MEAN_MOTION_DDOT": 0}, "tle": {"line1": "1 39122U 13012A   25350.36408220  .00000010  00000+0  00000+0 0  9993", "line2": "2 39122   0.0232  37.0984 0002756 232.4259 189.9985  1.00272564 46606"}}, "geometry": {"type": "Point", "coordinates": [-36.77105359643634, -0.029507191042903197]}}, {"type": "Feature", "properties": {"norad_id": 39163, "name": "EUTELSAT 7B", "group": "eutelsat", "lat": 0.0894832690931929, "lon": 87.07567936691183, "alt_km": 35796.95628737073, "timestamp": "2025-12-16T23:36:35.856563+00:00", "meta": {"OBJECT_NAME": "EUTELSAT 7B", "OBJECT_ID": "2013-022A", "EPOCH": "2025-12-16T06:32:32.017056", "MEAN_MOTION": 1.00274576, "ECCENTRICITY": 0.00045162, "INCLINATION": 0.0659, "RA_OF_ASC_NODE": 350.5927, "ARG_OF_PERICENTER": 328.5889, "MEAN_ANOMALY": 231.1412, "EPHEMERIS_TYPE": 0, "CLASSIFICATION_TYPE": "U", "NORAD_CAT_ID": 39163, "ELEMENT_SET_NO": 999, "REV_AT_EPOCH": 4611, "BSTAR": 0, "MEAN_MOTION_DOT": 7.2e-07, "MEAN_MOTION_DDOT": 0}, "tle": {"line1": "1 39163U 13022A   25350.27259279  .00000072  00000+0  00000+0 0  9995", "line2": "2 39163   0.0659 350.5927 0004516 328.5889 231.1412  1.00274576 46112"}}, "geometry": {"type": "Point", "coordinates": [87.07567936691183, 0.0894832690931929]}}, {"type": "Feature", "properties": {"norad_id": 39612, "name": "EXPRESS-AT1", "group": "eutelsat", "lat": 0.0009380216210757629, "lon": 136.00996143414284, "alt_km": 35784.06580736063, "timestamp": "2025-12-16T23:36:35.856575+00:00", "meta": {"OBJECT_NAME": "EXPRESS-AT1", "OBJECT_ID": "2014-010A", "EPOCH": "2025-12-16T03:21:00.994176", "MEAN_MOTION": 1.00270589, "ECCENTRICITY": 5.447e-05, "INCLINATION": 0.0153, "RA_OF_ASC_NODE": 301.1938, "ARG_OF_PERICENTER": 188.1524, "MEAN_ANOMALY": 61.9508, "EPHEMERIS_TYPE": 0, "CLASSIFICATION_TYPE": "U", "NORAD_CAT_ID": 39612, "ELEMENT_SET_NO": 999, "REV_AT_EPOCH": 4298, "BSTAR": 0, "MEAN_MOTION_DOT": 1.02e-06, "MEAN_MOTION_DDOT": 0}, "tle": {"line1": "1 39612U 14010A   25350.13959484  .00000102  00000+0  00000+0 0  9996", "line2": "2 39612   0.0153 301.1938 0000544 188.1524  61.9508  1.00270589 42983"}}, "geometry": {"type": "Point", "coordinates": [136.00996143414284, 0.0009380216210757629]}}, {"type": "Feature", "properties": {"norad_id": 39613, "name": "EXPRESS-AT2", "group": "eutelsat", "lat": -0.037403786843638785, "lon": -140.15169732886, "alt_km": 35785.21331418263, "timestamp": "2025-12-16T23:36:35.856588+00:00", "meta": {"OBJECT_NAME": "EXPRESS-AT2", "OBJECT_ID": "2014-010B", "EPOCH": "2025-12-16T16:44:38.561856", "MEAN_MOTION": 1.00273031, "ECCENTRICITY": 0.0001187, "INCLINATION": 0.0166, "RA_OF_ASC_NODE": 310.1218, "ARG_OF_PERICENTER": 353.6049, "MEAN_ANOMALY": 172.8753, "EPHEMERIS_TYPE": 0, "CLASSIFICATION_TYPE": "U", "NORAD_CAT_ID": 39613, "ELEMENT_SET_NO": 999, "REV_AT_EPOCH": 4267, "BSTAR": 0, "MEAN_MOTION_DOT": -2.57e-06, "MEAN_MOTION_DDOT": 0}, "tle": {"line1": "1 39613U 14010B   25350.69766854 -.00000257  00000+0  00000+0 0  9997", "line2": "2 39613   0.0166 310.1218 0001187 353.6049 172.8753  1.00273031 42679"}}, "geometry": {"type": "Point", "coordinates": [-140.15169732886, -0.037403786843638785]}}, {"type": "Feature", "properties": {"norad_id": 39773, "name": "EUTELSAT 3B", "group": "eutelsat", "lat": 0.0845812412847665, "lon": 83.06643227371704, "alt_km": 35801.584612846986, "timestamp": "2025-12-16T23:36:35.856599+00:00", "meta": {"OBJECT_NAME": "EUTELSAT 3B", "OBJECT_ID": "2014-030A", "EPOCH": "2025-12-16T06:31:24.625056", "MEAN_MOTION": 1.00271697, "ECCENTRICITY": 0.00043048, "INCLINATION": 0.0604, "RA_OF_ASC_NODE": 357.0496, "ARG_OF_PERICENTER": 234.34, "MEAN_ANOMALY": 314.7162, "EPHEMERIS_TYPE": 0, "CLASSIFICATION_TYPE": "U", "NORAD_CAT_ID": 39773, "ELEMENT_SET_NO": 999, "REV_AT_EPOCH": 4223, "BSTAR": 0, "MEAN_MOTION_DOT": 4.3e-07, "MEAN_MOTION_DDOT": 0}, "tle": {"line1": "1 39773U 14030A   25350.27181279  .00000043  00000+0  00000+0 0  9994", "line2": "2 39773   0.0604 357.0496 0004304 234.3400 314.7162  1.00271697 42230"}}, "geometry": {"type": "Point", "coordinates": [83.06643227371704, 0.0845812412847665]}}, {"type": "Feature", "properties": {"norad_id": 40425, "name": "EUTELSAT 115 WEST B", "group": "eutelsat", "lat": 0.0003727462149634352, "lon": -34.89955958755368, "alt_km": 35786.48096831856, "timestamp": "2025-12-16T23:36:35.856612+00:00", "meta": {"OBJECT_NAME": "EUTELSAT 115 WEST B", "OBJECT_ID": "2015-010B", "EPOCH": "2025-12-15T08:27:38.617056", "MEAN_MOTION": 1.00270198, "ECCENTRICITY": 1.61e-05, "INCLINATION": 0.0426, "RA_OF_ASC_NODE": 166.1328, "ARG_OF_PERICENTER": 67.8489, "MEAN_ANOMALY": 222.2908, "EPHEMERIS_TYPE": 0, "CLASSIFICATION_TYPE": "U", "NORAD_CAT_ID": 40425, "ELEMENT_SET_NO": 999, "REV_AT_EPOCH": 3955, "BSTAR": 0, "MEAN_MOTION_DOT": -3e-08, "MEAN_MOTION_DDOT": 0}, "tle": {"line1": "1 40425U 15010B   25349.35253029 -.00000003  00000+0  00000+0 0  9996", "line2": "2 40425   0.0426 166.1328 0000161  67.8489 222.2908  1.00270198 39551"}}, "geometry": {"type": "Point", "coordinates": [-34.89955958755368, 0.0003727462149634352]}}, {"type": "Feature", "properties": {"norad_id": 40875, "name": "EUTELSAT 8 WEST B", "group": "eutelsat", "lat": 0.0890395646983157, "lon": 72.03110461078772, "alt_km": 35803.61264102288, "timestamp": "2025-12-16T23:36:35.856624+00:00", "meta": {"OBJECT_NAME": "EUTELSAT 8 WEST B", "OBJECT_ID": "2015-039B", "EPOCH": "2025-12-16T06:28:09.934752", "MEAN_MOTION": 1.00272048, "ECCENTRICITY": 0.00042959, "INCLINATION": 0.0645, "RA_OF_ASC_NODE": 348.2271, "ARG_OF_PERICENTER": 278.3009, "MEAN_ANOMALY": 267.6902, "EPHEMERIS_TYPE": 0, "CLASSIFICATION_TYPE": "U", "NORAD_CAT_ID": 40875, "ELEMENT_SET_NO": 999, "REV_AT_EPOCH": 3782, "BSTAR": 0, "MEAN_MOTION_DOT": -4.2e-07, "MEAN_MOTION_DDOT": 0}, "tle": {"line1": "1 40875U 15039B   25350.26955943 -.00000042  00000+0  00000+0 0  9995", "line2": "2 40875   0.0645 348.2271 0004295 278.3009 267.6902  1.00272048 37823"}}, "geometry": {"type": "Point", "coordinates": [72.03110461078772, 0.0890395646983157]}}, {"type": "Feature", "properties": {"norad_id": 41310, "name": "EUTELSAT 9B", "group": "eutelsat", "lat": 0.03908789345170479, "lon": 88.99636999342202, "alt_km": 35805.145261929385, "timestamp": "2025-12-16T23:36:35.856637+00:00", "meta": {"OBJECT_NAME": "EUTELSAT 9B", "OBJECT_ID": "2016-005A", "EPOCH": "2025-12-16T06:33:01.969344", "MEAN_MOTION": 1.00271432, "ECCENTRICITY": 0.0004502, "INCLINATION": 0.0534, "RA_OF_ASC_NODE": 68.6995, "ARG_OF_PERICENTER": 204.1781, "MEAN_ANOMALY": 279.536, "EPHEMERIS_TYPE": 0, "CLASSIFICATION_TYPE": "U", "NORAD_CAT_ID": 41310, "ELEMENT_SET_NO": 999, "REV_AT_EPOCH": 3628, "BSTAR": 0, "MEAN_MOTION_DOT": 8.5e-07, "MEAN_MOTION_DDOT": 0}, "tle": {"line1": "1 41310U 16005A   25350.27293946  .00000085  00000+0  00000+0 0  9999", "line2": "2 41310   0.0534  68.6995 0004502 204.1781 279.5360  1.00271432 36281"}}, "geometry": {"type": "Point", "coordinates": [88.99636999342202, 0.03908789345170479]}}, {"type": "Feature", "properties": {"norad_id": 41382, "name": "EUTELSAT 65 WEST A", "group": "eutelsat", "lat": 0.06108501377322448, "lon": 14.82238009950555, "alt_km": 35788.2619402004, "timestamp": "2025-12-16T23:36:35.856649+00:00", "meta": {"OBJECT_NAME": "EUTELSAT 65 WEST A", "OBJECT_ID": "2016-014A", "EPOCH": "2025-12-16T06:07:38.638848", "MEAN_MOTION": 1.0027061, "ECCENTRICITY": 0.00023468, "INCLINATION": 0.0588, "RA_OF_ASC_NODE": 322.8446, "ARG_OF_PERICENTER": 311.7764, "MEAN_ANOMALY": 197.234, "EPHEMERIS_TYPE": 0, "CLASSIFICATION_TYPE": "U", "NORAD_CAT_ID": 41382, "ELEMENT_SET_NO": 999, "REV_AT_EPOCH": 3570, "BSTAR": 0, "MEAN_MOTION_DOT": -2.53e-06, "MEAN_MOTION_DDOT": 0}, "tle": {"line1": "1 41382U 16014A   25350.25530832 -.00000253  00000+0  00000+0 0  9992", "line2": "2 41382   0.0588 322.8446 0002346 311.7764 197.2340  1.00270610 35702"}}, "geometry": {"type": "Point", "coordinates": [14.82238009950555, 0.06108501377322448]}}, {"type": "Feature", "properties": {"norad_id": 41589, "name": "EUTELSAT 117 WEST B", "group": "eutelsat", "lat": -0.0002133997970765374, "lon": -36.989999575972, "alt_km": 35785.887731101284, "timestamp": "2025-12-16T23:36:35.856661+00:00", "meta": {"OBJECT_NAME": "EUTELSAT 117 WEST B", "OBJECT_ID": "2016-038B", "EPOCH": "2025-12-16T07:41:38.671008", "MEAN_MOTION": 1.00271538, "ECCENTRICITY": 1.358e-05, "INCLINATION": 0.0424, "RA_OF_ASC_NODE": 167.2106, "ARG_OF_PERICENTER": 90.3228, "MEAN_ANOMALY": 186.0956, "EPHEMERIS_TYPE": 0, "CLASSIFICATION_TYPE": "U", "NORAD_CAT_ID": 41589, "ELEMENT_SET_NO": 999, "REV_AT_EPOCH": 3482, "BSTAR": 0, "MEAN_MOTION_DOT": 1.2e-07, "MEAN_MOTION_DDOT": 0}, "tle": {"line1": "1 41589U 16038B   25350.32058647  .00000012  00000+0  00000+0 0  9996", "line2": "2 41589   0.0424 167.2106 0000135  90.3228 186.0956  1.00271538 34824"}}, "geometry": {"type": "Point", "coordinates": [-36.989999575972, -0.0002133997970765374]}}]}